COSMOS 2251             
1 22675U 93036A   26120.22939538  .00000086  00000+0  40701-4 0  9994
2 22675  74.0399  62.8395 0023748 115.1094 245.2526 14.33246351717579
COSMOS 2251 DEB         
1 33757U 93036E   26120.31174561  .00000071  00000+0  35721-4 0  9994
2 33757  74.0366  70.6354 0013824  52.0990  99.2969 14.32616879899806
COSMOS 2251 DEB         
1 33758U 93036F   26120.24160017  .00002640  00000+0  65038-3 0  9995
2 33758  74.0274 313.9160 0015613 352.0408 125.1831 14.52627612903158
COSMOS 2251 DEB         
1 33760U 93036H   26120.17161872  .00000228  00000+0  87598-4 0  9996
2 33760  74.0339  27.3778 0019404  96.4707  53.8129 14.35762038901111
COSMOS 2251 DEB         
1 33761U 93036J   26120.12870883  .00001160  00000+0  35359-3 0  9994
2 33761  74.0373 355.3102 0022119  45.9693  79.4790 14.42960043902309
COSMOS 2251 DEB         
1 33762U 93036K   26120.24049549  .00000107  00000+0  48014-4 0  9998
2 33762  74.0424  56.8084 0014125  89.1907  61.9604 14.33709773900326
COSMOS 2251 DEB         
1 33764U 93036M   26120.19584814  .00000792  00000+0  26025-3 0  9990
2 33764  74.0354  16.9276 0022469 305.0793 212.9306 14.39804435901496
COSMOS 2251 DEB         
1 33765U 93036N   26120.30418077  .00043832  00000+0  19178-2 0  9993
2 33765  74.0005 244.2378 0055893 298.8382  60.7211 15.20413960917175
COSMOS 2251 DEB         
1 33766U 93036P   26120.03183642  .00001410  00000+0  48840-3 0  9996
2 33766  74.1859 243.7385 0063356  47.5271 313.1212 14.35417899897291
COSMOS 2251 DEB         
1 33768U 93036R   26119.98961183  .00000534  00000+0  48705-3 0  9990
2 33768  74.0704 356.7031 0367221 123.9566 345.4176 13.58589126851731
COSMOS 2251 DEB         
1 33779U 93036U   26119.47651743  .00010743  00000+0  16358-2 0  9995
2 33779  74.0429 262.7963 0013748 264.4579 159.7915 14.73956958905550
COSMOS 2251 DEB         
1 33782U 93036X   26120.14167547  .00001186  00000+0  37748-3 0  9997
2 33782  74.0348  21.5011 0019501  57.9813  93.3927 14.40830060901199
COSMOS 2251 DEB         
1 33785U 93036AA  26120.17071986  .00005313  00000+0  81650-3 0  9991
2 33785  73.8636 147.7613 0016515  55.0208   8.1147 14.73709541905442
COSMOS 2251 DEB         
1 33789U 93036AE  26120.22113205  .00000314  00000+0  22216-3 0  9991
2 33789  74.0644 212.3341 0240497 295.4658  88.6991 13.89000510870180
COSMOS 2251 DEB         
1 33791U 93036AG  26120.21405477  .00000936  00000+0  28052-3 0  9992
2 33791  74.1722 142.4074 0030920 293.7605 136.1934 14.43857337900502
COSMOS 2251 DEB         
1 33792U 93036AH  26120.28515050  .00000543  00000+0  53738-3 0  9992
2 33792  73.8969 124.0194 0429593 164.5947 306.4953 13.46094161843063
COSMOS 2251 DEB         
1 33793U 93036AJ  26119.79164792  .00001235  00000+0  49011-3 0  9998
2 33793  73.9801 258.8969 0077792  17.8565 102.8734 14.28208067891771
COSMOS 2251 DEB         
1 33795U 93036AL  26120.18203201  .00022869  00000+0  12763-2 0  9993
2 33795  74.0330 151.1877 0032001 208.0436 216.7553 15.13030773921107
COSMOS 2251 DEB         
1 33797U 93036AN  26120.12223348  .00001494  00000+0  31957-3 0  9991
2 33797  74.0438 131.8098 0062221 185.7000 235.4255 14.58502990910022
COSMOS 2251 DEB         
1 33798U 93036AP  26120.07528767  .00000356  00000+0  10542-3 0  9992
2 33798  74.0296 238.1969 0091943 324.9262 213.2363 14.44775947905918
COSMOS 2251 DEB         
1 33799U 93036AQ  26120.21905829  .00013177  00000+0  15873-2 0  9993
2 33799  74.0312 168.2930 0024265 212.3199 208.7832 14.83690786908622
COSMOS 2251 DEB         
1 33805U 93036AW  26120.21433811  .00000828  00000+0  18148-3 0  9996
2 33805  74.0318  47.8257 0061801 201.6624 158.1926 14.58195821912451
COSMOS 2251 DEB         
1 33811U 93036BC  26120.15838086  .00015758  00000+0  92044-3 0  9994
2 33811  73.8397  14.1776 0025520  79.2980  74.2609 15.11629461921051
COSMOS 2251 DEB         
1 33816U 93036BH  26120.27843934  .00000723  00000+0  53244-3 0  9995
2 33816  73.8953 230.5215 0265221 217.4355 140.8037 13.82012016865872
COSMOS 2251 DEB         
1 33818U 93036BK  26120.31132142  .00075484  00000+0  26826-2 0  9995
2 33818  74.0771 236.4372 0010747 178.6251 181.4982 15.28593025919683
COSMOS 2251 DEB         
1 33819U 93036BL  26120.00128435  .00001816  00000+0  64618-3 0  9992
2 33819  74.1788 319.6392 0090029 141.8990  18.8463 14.32728293894750
COSMOS 2251 DEB         
1 33821U 93036BN  26120.28225317  .00036204  00000+0  10248-2 0  9990
2 33821  74.0276 207.6581 0039991 205.9853 153.9346 15.35306059771202
COSMOS 2251 DEB         
1 33822U 93036BP  26119.67372858  .00001725  00000+0  82946-3 0  9990
2 33822  74.0673 309.9810 0148911 323.6188 109.5076 14.13940953880038
COSMOS 2251 DEB         
1 33823U 93036BQ  26119.85025936  .00000566  00000+0  33771-3 0  9997
2 33823  73.8085 267.2040 0208144   8.5254 110.8731 13.99316044875412
COSMOS 2251 DEB         
1 33825U 93036BS  26120.01709289  .00010205  00000+0  15443-2 0  9995
2 33825  73.9804 118.3305 0076773  51.7011 334.0182 14.72287574909130
COSMOS 2251 DEB         
1 33826U 93036BT  26120.07679516  .00004538  00000+0  10451-2 0  9997
2 33826  74.0629 149.4215 0081982 161.3991 230.2449 14.53573340897784
COSMOS 2251 DEB         
1 33828U 93036BV  26120.05836568  .00001169  00000+0  34247-3 0  9996
2 33828  74.0471 340.7779 0028030  21.6685 139.9847 14.44790548903107
COSMOS 2251 DEB         
1 33830U 93036BX  26120.01142412  .00005368  00000+0  72502-3 0  9994
2 33830  74.0315 318.8457 0041035  46.4348 105.6892 14.78729929915146
COSMOS 2251 DEB         
1 33832U 93036BZ  26119.95730016  .00004750  00000+0  93688-3 0  9992
2 33832  74.0538 305.7963 0021141 304.2097 216.2283 14.62618990904446
COSMOS 2251 DEB         
1 33835U 93036CC  26120.25930968  .00003471  00000+0  65926-3 0  9991
2 33835  74.0574 195.8444 0055080 214.2324 202.3005 14.63608820908155
COSMOS 2251 DEB         
1 33836U 93036CD  26120.06953903  .00008069  00000+0  10061-2 0  9992
2 33836  73.9974 345.3685 0025279 160.6203 351.4875 14.82343339661366
COSMOS 2251 DEB         
1 33837U 93036CE  26120.09421137  .00000727  00000+0  18960-3 0  9995
2 33837  74.0106 155.0523 0034754 340.3764  19.6057 14.51004203908022
COSMOS 2251 DEB         
1 33838U 93036CF  26119.80642933  .00001219  00000+0  32855-3 0  9998
2 33838  74.0366 251.1457 0026876 337.5000 148.1836 14.48801686905680
COSMOS 2251 DEB         
1 33839U 93036CG  26119.94601045  .00000991  00000+0  18218-3 0  9996
2 33839  74.0378 300.8139 0083502  17.6865 101.8987 14.64852875916035
COSMOS 2251 DEB         
1 33841U 93036CJ  26120.20488753  .00000531  00000+0  18346-3 0  9991
2 33841  74.0396  23.0633 0019710  74.1151  88.0514 14.38057003901045
COSMOS 2251 DEB         
1 33842U 93036CK  26120.27826461  .00000804  00000+0  24489-3 0  9999
2 33842  74.0331 322.4298 0046290  36.8471 323.5851 14.43016211903350
COSMOS 2251 DEB         
1 33844U 93036CM  26120.11701112  .00000833  00000+0  30321-3 0  9993
2 33844  74.0650 160.0679 0047381 150.2119 241.6044 14.34071247897094
COSMOS 2251 DEB         
1 33848U 93036CR  26120.03037457  .00002993  00000+0  85405-3 0  9994
2 33848  74.0285 100.0980 0041613 129.2681 292.6286 14.45106128898288
COSMOS 2251 DEB         
1 33892U 93036CV  26120.25507611  .00001404  00000+0  58522-3 0  9997
2 33892  73.8029 209.2508 0113948 216.1701 178.5998 14.23811398889266
COSMOS 2251 DEB         
1 33894U 93036CX  26120.21897802  .00001033  00000+0  10802-2 0  9995
2 33894  73.7630 134.8068 0570084  34.3046 329.3515 13.21608830825374
COSMOS 2251 DEB         
1 33896U 93036CZ  26120.12549666  .00001108  00000+0  49757-3 0  9994
2 33896  73.7658 265.3408 0125517  58.0234 115.2249 14.19482651887039
COSMOS 2251 DEB         
1 33899U 93036DC  26120.17627868  .00003082  00000+0  60158-3 0  9994
2 33899  74.0534 181.0466 0057361 208.8510 182.5212 14.62353690908624
COSMOS 2251 DEB         
1 33900U 93036DD  26119.99316039  .00001713  00000+0  36577-3 0  9997
2 33900  74.0161  96.3144 0049031 213.7528 202.9739 14.58946578910524
COSMOS 2251 DEB         
1 33901U 93036DE  26120.01105398  .00097129  00000+0  22930-2 0  9990
2 33901  73.7645 111.5063 0032003 232.5997 127.2296 15.40889336916240
COSMOS 2251 DEB         
1 33905U 93036DJ  26120.26355047  .00001480  00000+0  50982-3 0  9993
2 33905  73.8863  60.1422 0058215 277.9613 233.0169 14.35897560896755
COSMOS 2251 DEB         
1 33906U 93036DK  26120.25085255  .00008126  00000+0  17051-2 0  9997
2 33906  74.0298  57.7408 0031906  62.6013  54.9141 14.59469115900278
COSMOS 2251 DEB         
1 33907U 93036DL  26120.11663308  .00004448  00000+0  15394-2 0  9995
2 33907  74.0672 141.9106 0114524 166.7383 251.3491 14.32335205885603
COSMOS 2251 DEB         
1 33908U 93036DM  26120.27213068  .00001829  00000+0  87107-3 0  9999
2 33908  73.8380 319.6862 0216301 319.0612  39.4452 14.08567724874239
COSMOS 2251 DEB         
1 33911U 93036DQ  26119.50576204  .00011276  00000+0  15366-2 0  9995
2 33911  74.0887 252.7036 0012541 146.7894 333.3947 14.78706292906788
COSMOS 2251 DEB         
1 33912U 93036DR  26119.56563296  .00002520  00000+0  61938-3 0  9998
2 33912  74.0331 289.8808 0010435 337.9305  86.1292 14.52809226904341
COSMOS 2251 DEB         
1 33913U 93036DS  26119.90603471  .00001343  00000+0  35590-3 0  9994
2 33913  74.0327 284.6410 0047162 353.2540 158.8855 14.49093940904580
COSMOS 2251 DEB         
1 33914U 93036DT  26120.25755013  .00000419  00000+0  34836-3 0  9990
2 33914  74.0879 146.7626 0304531 217.6687 219.0353 13.72177067859817
COSMOS 2251 DEB         
1 33915U 93036DU  26120.12660998  .00000923  00000+0  30983-3 0  9993
2 33915  74.0405 140.3960 0106508 199.5170 218.8654 14.35489414897436
COSMOS 2251 DEB         
1 33916U 93036DV  26120.25290231  .00000447  00000+0  37882-3 0  9993
2 33916  74.0508 172.9886 0325133 313.9617 107.4570 13.68733976857867
COSMOS 2251 DEB         
1 33917U 93036DW  26119.76813881  .00000707  00000+0  56866-3 0  9992
2 33917  74.1055 255.9975 0330683 324.6364  33.3212 13.69739581856230
